start=new Date('2022-08-06T00:00:00.000Z').valueOf();
sats=[{"DECAY_DATE":null,"SITE":"AFWTR","PERIOD":"91.988","TLE_LINE2":"2 53199  97.6554 276.6719 0001825 108.2830 139.7957 15.65418941  1300","OBJECT_ID":"2022-084L","OBJECT_NAME":"STARLINK-4395","CLASSIFICATION_TYPE":"U","BSTAR":"-0.01177800000000","MEAN_MOTION":"15.65418941","REV_AT_EPOCH":"130","MEAN_MOTION_DOT":"-0.01052666","MEAN_ELEMENT_THEORY":"SGP4","MEAN_ANOMALY":"139.7957","ECCENTRICITY":"0.00018250","COUNTRY_CODE":"US","PERIAPSIS":"370.804","OBJECT_TYPE":"PAYLOAD","TIME_SYSTEM":"UTC","LAUNCH_DATE":"2022-07-22","NORAD_CAT_ID":"53199","EPHEMERIS_TYPE":"0","GP_ID":"209660427","TLE_LINE1":"1 53199U 22084L   22217.91667824 -.01052666  00000-0 -11778-1 0  9993","ELEMENT_SET_NO":"999","ARG_OF_PERICENTER":"108.2830","EPOCH":"2022-08-05T22:00:00.999936","SEMIMAJOR_AXIS":"6750.171","REF_FRAME":"TEME","APOAPSIS":"373.268","INCLINATION":"97.6554","RA_OF_ASC_NODE":"276.6719","MEAN_MOTION_DDOT":"0.0000000000000","CENTER_NAME":"EARTH","FILE":"3530042","RCS_SIZE":"LARGE"},{"ELEMENT_SET_NO":"999","ARG_OF_PERICENTER":"102.9349","TIME_SYSTEM":"UTC","LAUNCH_DATE":"2022-07-22","NORAD_CAT_ID":"53200","EPHEMERIS_TYPE":"0","TLE_LINE1":"1 53200U 22084M   22217.91667824 -.01052413  00000-0 -11785-1 0  9994","GP_ID":"209659785","APOAPSIS":"373.309","INCLINATION":"97.6554","MEAN_MOTION_DDOT":"0.0000000000000","RA_OF_ASC_NODE":"276.6746","CENTER_NAME":"EARTH","FILE":"3530042","RCS_SIZE":"MEDIUM","EPOCH":"2022-08-05T22:00:00.999936","SEMIMAJOR_AXIS":"6750.232","REF_FRAME":"TEME","CLASSIFICATION_TYPE":"U","BSTAR":"-0.01178500000000","REV_AT_EPOCH":"130","MEAN_MOTION":"15.65397738","DECAY_DATE":null,"SITE":"AFWTR","PERIOD":"91.989","TLE_LINE2":"2 53200  97.6554 276.6746 0001796 102.9349 143.4355 15.65397738  1300","OBJECT_NAME":"STARLINK-4417","OBJECT_ID":"2022-084M","MEAN_ELEMENT_THEORY":"SGP4","MEAN_ANOMALY":"143.4355","ECCENTRICITY":"0.00017960","COUNTRY_CODE":"US","PERIAPSIS":"370.885","OBJECT_TYPE":"PAYLOAD","MEAN_MOTION_DOT":"-0.01052413"},{"SITE":"AFWTR","DECAY_DATE":null,"OBJECT_NAME":"STARLINK-4405","OBJECT_ID":"2022-084N","TLE_LINE2":"2 53201  97.6554 276.6713 0001848 111.4028 137.8144 15.65433065  1309","PERIOD":"91.987","BSTAR":"-0.01177400000000","CLASSIFICATION_TYPE":"U","REV_AT_EPOCH":"130","MEAN_MOTION":"15.65433065","MEAN_MOTION_DOT":"-0.01052888","ECCENTRICITY":"0.00018480","COUNTRY_CODE":"US","MEAN_ANOMALY":"137.8144","MEAN_ELEMENT_THEORY":"SGP4","OBJECT_TYPE":"PAYLOAD","PERIAPSIS":"370.748","LAUNCH_DATE":"2022-07-22","NORAD_CAT_ID":"53201","TIME_SYSTEM":"UTC","TLE_LINE1":"1 53201U 22084N   22217.91667824 -.01052888  00000-0 -11774-1 0  9999","GP_ID":"209660297","EPHEMERIS_TYPE":"0","ELEMENT_SET_NO":"999","ARG_OF_PERICENTER":"111.4028","SEMIMAJOR_AXIS":"6750.131","EPOCH":"2022-08-05T22:00:00.999936","REF_FRAME":"TEME","MEAN_MOTION_DDOT":"0.0000000000000","RA_OF_ASC_NODE":"276.6713","INCLINATION":"97.6554","APOAPSIS":"373.243","RCS_SIZE":"LARGE","CENTER_NAME":"EARTH","FILE":"3530042"},{"ELEMENT_SET_NO":"999","ARG_OF_PERICENTER":"99.5530","TIME_SYSTEM":"UTC","LAUNCH_DATE":"2022-07-22","NORAD_CAT_ID":"53202","EPHEMERIS_TYPE":"0","TLE_LINE1":"1 53202U 22084P   22217.91667824 -.01052212  00000-0 -11776-1 0  9993","GP_ID":"209659655","RA_OF_ASC_NODE":"276.6728","MEAN_MOTION_DDOT":"0.0000000000000","APOAPSIS":"373.259","INCLINATION":"97.6554","RCS_SIZE":"MEDIUM","FILE":"3530042","CENTER_NAME":"EARTH","EPOCH":"2022-08-05T22:00:00.999936","SEMIMAJOR_AXIS":"6750.192","REF_FRAME":"TEME","CLASSIFICATION_TYPE":"U","BSTAR":"-0.01177600000000","REV_AT_EPOCH":"130","MEAN_MOTION":"15.65411657","DECAY_DATE":null,"SITE":"AFWTR","OBJECT_ID":"2022-084P","OBJECT_NAME":"STARLINK-4411","PERIOD":"91.989","TLE_LINE2":"2 53202  97.6554 276.6728 0001780  99.5530 147.9565 15.65411657  1307","MEAN_ANOMALY":"147.9565","MEAN_ELEMENT_THEORY":"SGP4","ECCENTRICITY":"0.00017800","COUNTRY_CODE":"US","OBJECT_TYPE":"PAYLOAD","PERIAPSIS":"370.856","MEAN_MOTION_DOT":"-0.01052212"},{"CLASSIFICATION_TYPE":"U","BSTAR":"-0.01177000000000","MEAN_MOTION":"15.65454425","REV_AT_EPOCH":"130","DECAY_DATE":null,"SITE":"AFWTR","PERIOD":"91.986","TLE_LINE2":"2 53203  97.6554 276.6697 0001954 121.2619 129.6625 15.65454425  1301","OBJECT_NAME":"STARLINK-4409","OBJECT_ID":"2022-084Q","MEAN_ANOMALY":"129.6625","MEAN_ELEMENT_THEORY":"SGP4","ECCENTRICITY":"0.00019540","COUNTRY_CODE":"US","PERIAPSIS":"370.615","OBJECT_TYPE":"PAYLOAD","MEAN_MOTION_DOT":"-0.01053418","ELEMENT_SET_NO":"999","ARG_OF_PERICENTER":"121.2619","TIME_SYSTEM":"UTC","NORAD_CAT_ID":"53203","LAUNCH_DATE":"2022-07-22","EPHEMERIS_TYPE":"0","GP_ID":"209660557","TLE_LINE1":"1 53203U 22084Q   22217.91667824 -.01053418  00000-0 -11770-1 0  9997","APOAPSIS":"373.253","INCLINATION":"97.6554","MEAN_MOTION_DDOT":"0.0000000000000","RA_OF_ASC_NODE":"276.6697","FILE":"3530042","CENTER_NAME":"EARTH","RCS_SIZE":"MEDIUM","EPOCH":"2022-08-05T22:00:00.999936","SEMIMAJOR_AXIS":"6750.069","REF_FRAME":"TEME"},{"SITE":"AFWTR","DECAY_DATE":null,"PERIOD":"91.988","TLE_LINE2":"2 53204  97.6554 276.6711 0001917 118.1030 130.5449 15.65426285  1308","OBJECT_ID":"2022-084R","OBJECT_NAME":"STARLINK-4410","CLASSIFICATION_TYPE":"U","BSTAR":"-0.01178200000000","MEAN_MOTION":"15.65426285","REV_AT_EPOCH":"130","MEAN_MOTION_DOT":"-0.01053301","MEAN_ANOMALY":"130.5449","MEAN_ELEMENT_THEORY":"SGP4","COUNTRY_CODE":"US","ECCENTRICITY":"0.00019170","PERIAPSIS":"370.721","OBJECT_TYPE":"PAYLOAD","TIME_SYSTEM":"UTC","LAUNCH_DATE":"2022-07-22","NORAD_CAT_ID":"53204","EPHEMERIS_TYPE":"0","TLE_LINE1":"1 53204U 22084R   22217.91667824 -.01053301  00000-0 -11782-1 0  9992","GP_ID":"209660176","ELEMENT_SET_NO":"999","ARG_OF_PERICENTER":"118.1030","EPOCH":"2022-08-05T22:00:00.999936","SEMIMAJOR_AXIS":"6750.150","REF_FRAME":"TEME","APOAPSIS":"373.309","INCLINATION":"97.6554","MEAN_MOTION_DDOT":"0.0000000000000","RA_OF_ASC_NODE":"276.6711","FILE":"3530042","CENTER_NAME":"EARTH","RCS_SIZE":"MEDIUM"},{"OBJECT_NAME":"STARLINK-4397","OBJECT_ID":"2022-084S","TLE_LINE2":"2 53205  97.6554 276.6680 0001848 112.0156 140.0466 15.65468126  1304","PERIOD":"91.985","DECAY_DATE":null,"SITE":"AFWTR","MEAN_MOTION":"15.65468126","REV_AT_EPOCH":"130","BSTAR":"-0.01175700000000","CLASSIFICATION_TYPE":"U","MEAN_MOTION_DOT":"-0.01052850","OBJECT_TYPE":"PAYLOAD","PERIAPSIS":"370.647","COUNTRY_CODE":"US","ECCENTRICITY":"0.00018480","MEAN_ELEMENT_THEORY":"SGP4","MEAN_ANOMALY":"140.0466","GP_ID":"209659906","TLE_LINE1":"1 53205U 22084S   22217.91667824 -.01052850  00000-0 -11757-1 0  9993","EPHEMERIS_TYPE":"0","LAUNCH_DATE":"2022-07-22","NORAD_CAT_ID":"53205","TIME_SYSTEM":"UTC","ARG_OF_PERICENTER":"112.0156","ELEMENT_SET_NO":"999","REF_FRAME":"TEME","SEMIMAJOR_AXIS":"6750.030","EPOCH":"2022-08-05T22:00:00.999936","RCS_SIZE":"LARGE","FILE":"3530042","CENTER_NAME":"EARTH","MEAN_MOTION_DDOT":"0.0000000000000","RA_OF_ASC_NODE":"276.6680","INCLINATION":"97.6554","APOAPSIS":"373.142"},{"REF_FRAME":"TEME","EPOCH":"2022-08-05T22:00:00.999936","SEMIMAJOR_AXIS":"6750.090","RCS_SIZE":"LARGE","CENTER_NAME":"EARTH","FILE":"3530042","RA_OF_ASC_NODE":"276.6705","MEAN_MOTION_DDOT":"0.0000000000000","APOAPSIS":"373.203","INCLINATION":"97.6554","EPHEMERIS_TYPE":"0","TLE_LINE1":"1 53206U 22084T   22217.91667824 -.01052857  00000-0 -11767-1 0  9992","GP_ID":"209660047","TIME_SYSTEM":"UTC","LAUNCH_DATE":"2022-07-22","NORAD_CAT_ID":"53206","ARG_OF_PERICENTER":"111.6386","ELEMENT_SET_NO":"999","MEAN_MOTION_DOT":"-0.01052857","OBJECT_TYPE":"PAYLOAD","PERIAPSIS":"370.708","MEAN_ELEMENT_THEORY":"SGP4","MEAN_ANOMALY":"138.7168","ECCENTRICITY":"0.00018480","COUNTRY_CODE":"US","OBJECT_ID":"2022-084T","OBJECT_NAME":"STARLINK-4408","PERIOD":"91.987","TLE_LINE2":"2 53206  97.6554 276.6705 0001848 111.6386 138.7168 15.65447090  1303","DECAY_DATE":null,"SITE":"AFWTR","REV_AT_EPOCH":"130","MEAN_MOTION":"15.65447090","CLASSIFICATION_TYPE":"U","BSTAR":"-0.01176700000000"},{"FILE":"3530042","CENTER_NAME":"EARTH","RCS_SIZE":"MEDIUM","INCLINATION":"97.6554","APOAPSIS":"373.063","MEAN_MOTION_DDOT":"0.0000000000000","RA_OF_ASC_NODE":"276.6681","REF_FRAME":"TEME","SEMIMAJOR_AXIS":"6750.011","EPOCH":"2022-08-05T22:00:00.999936","ARG_OF_PERICENTER":"94.9831","ELEMENT_SET_NO":"999","TLE_LINE1":"1 53207U 22084U   22217.91667824 -.01051935  00000-0 -11743-1 0  9993","GP_ID":"209660428","EPHEMERIS_TYPE":"0","LAUNCH_DATE":"2022-07-22","NORAD_CAT_ID":"53207","TIME_SYSTEM":"UTC","PERIAPSIS":"370.689","OBJECT_TYPE":"PAYLOAD","COUNTRY_CODE":"US","ECCENTRICITY":"0.00017590","MEAN_ELEMENT_THEORY":"SGP4","MEAN_ANOMALY":"157.6481","MEAN_MOTION_DOT":"-0.01051935","MEAN_MOTION":"15.65474614","REV_AT_EPOCH":"130","BSTAR":"-0.01174300000000","CLASSIFICATION_TYPE":"U","TLE_LINE2":"2 53207  97.6554 276.6681 0001759  94.9831 157.6481 15.65474614  1306","PERIOD":"91.985","OBJECT_NAME":"STARLINK-4413","OBJECT_ID":"2022-084U","DECAY_DATE":null,"SITE":"AFWTR"},{"MEAN_MOTION_DOT":"-0.01053000","ECCENTRICITY":"0.00018610","COUNTRY_CODE":"US","MEAN_ELEMENT_THEORY":"SGP4","MEAN_ANOMALY":"136.8223","PERIAPSIS":"370.719","OBJECT_TYPE":"PAYLOAD","DECAY_DATE":null,"SITE":"AFWTR","TLE_LINE2":"2 53208  97.6554 276.6705 0001861 112.9641 136.8223 15.65440125  1301","PERIOD":"91.987","OBJECT_NAME":"STARLINK-4425","OBJECT_ID":"2022-084V","BSTAR":"-0.01177200000000","CLASSIFICATION_TYPE":"U","MEAN_MOTION":"15.65440125","REV_AT_EPOCH":"130","SEMIMAJOR_AXIS":"6750.110","EPOCH":"2022-08-05T22:00:00.999936","REF_FRAME":"TEME","INCLINATION":"97.6554","APOAPSIS":"373.231","RA_OF_ASC_NODE":"276.6705","MEAN_MOTION_DDOT":"0.0000000000000","CENTER_NAME":"EARTH","FILE":"3530042","RCS_SIZE":"MEDIUM","LAUNCH_DATE":"2022-07-22","NORAD_CAT_ID":"53208","TIME_SYSTEM":"UTC","GP_ID":"209659786","TLE_LINE1":"1 53208U 22084V   22217.91667824 -.01053000  00000-0 -11772-1 0  9991","EPHEMERIS_TYPE":"0","ELEMENT_SET_NO":"999","ARG_OF_PERICENTER":"112.9641"}];
